{
  "norad_id": 66425,
  "name": "STARLINK-35555",
  "history": [
    {
      "epoch": "2026-03-28T14:31:48.147168Z",
      "apogee_km": 483.53858278022653,
      "perigee_km": 482.48196609996194,
      "latitude_deg": -1.2037514274071098e-05,
      "longitude_deg": 123.599210577677,
      "height_km": 482.7171426535285,
      "semi_major_axis_km": 6861.1472744400935,
      "eccentricity": 7.7e-05,
      "inclination_deg": 43.0034,
      "raan_deg": 167.5733,
      "arg_perigee_deg": 277.5776,
      "mean_anomaly_deg": 82.4988,
      "mean_motion_rev_day": 15.27592965
    }
  ]
}