{"fetched_at":"2026-03-29T16:36:15Z","count":15609,"tles":[{"name":"STARLINK-35555","line1":"1 66425U 25259D   26087.60541837  .00018233  00000+0  67021-3 0  9998","line2":"2 66425  43.0034 167.5733 0000770 277.5776  82.4988 15.27592965 22381","category":"Starlink"}]}